ONEWEB-0423             
1 51627U 22012F   25248.23220390  .00000149  00000+0  35152-3 0  9992
2 51627  87.9038  62.5422 0001737  87.3544 272.7786 13.17650066176174
ONEWEB-0425             
1 51628U 22012G   25248.06505215 -.00000581  00000+0 -17015-2 0  9995
2 51628  87.8748  93.1230 0002025  84.5314 275.6044 13.10372402171985
ONEWEB-0428             
1 51629U 22012H   25248.27421273 -.00000046  00000+0 -16922-3 0  9993
2 51629  87.8740  93.1024 0001502  80.5179 279.6118 13.10369395171975
ONEWEB-0431             
1 51630U 22012J   25248.09157359  .00000713  00000+0  20066-2 0  9998
2 51630  87.8760  93.1121 0001654  85.9700 274.1616 13.10345199172008
ONEWEB-0434             
1 51631U 22012K   25248.06838555 -.00000464  00000+0 -13657-2 0  9993
2 51631  87.8751  93.1573 0002334  83.1054 277.0338 13.10375124171988
ONEWEB-0435             
1 51632U 22012L   25248.07667724 -.00000264  00000+0 -79120-3 0  9999
2 51632  87.8748  93.1476 0001489  70.2601 289.8687 13.10375580171975
ONEWEB-0436             
1 51633U 22012M   25248.22376521  .00000057  00000+0  11478-3 0  9999
2 51633  87.9029  62.5255 0001509  87.1338 272.9966 13.17649701176155
ONEWEB-0438             
1 51634U 22012N   25248.13642660 -.00000639  00000+0 -18672-2 0  9990
2 51634  87.8745  93.1364 0001863  84.8124 275.3216 13.10371392172018
ONEWEB-0439             
1 51635U 22012P   25248.06338834 -.00000607  00000+0 -17749-2 0  9997
2 51635  87.8747  93.1393 0001698  81.0093 279.1227 13.10372092171980
ONEWEB-0442             
1 51636U 22012Q   25248.21618310 -.00000018  00000+0 -78937-4 0  9999
2 51636  87.9028  62.5808 0002338  99.0384 261.1012 13.17647906176141
ONEWEB-0443             
1 51637U 22012R   25248.23558323  .00000191  00000+0  45953-3 0  9990
2 51637  87.9025  62.5848 0001981  83.8979 276.2378 13.17648566176197
ONEWEB-0444             
1 51638U 22012S   25248.12980397 -.00000560  00000+0 -16411-2 0  9997
2 51638  87.8742  93.1263 0001658  78.7159 281.4155 13.10370471172005
ONEWEB-0445             
1 51639U 22012T   25248.07503199 -.00000276  00000+0 -82761-3 0  9999
2 51639  87.8760  93.0903 0001688  90.2204 269.9116 13.10374910172009
ONEWEB-0446             
1 51640U 22012U   25248.12813179 -.00000485  00000+0 -14272-2 0  9992
2 51640  87.8743  93.1420 0001589  91.8243 268.3067 13.10369034171993
ONEWEB-0448             
1 51641U 22012V   25248.13311827 -.00000589  00000+0 -17232-2 0  9991
2 51641  87.8745  93.1403 0001669  81.3019 278.8298 13.10372087171962
ONEWEB-0449             
1 51642U 22012W   25248.13810413 -.00000688  00000+0 -20084-2 0  9996
2 51642  87.8743  93.1108 0002159  83.4074 276.7300 13.10372786171970
ONEWEB-0451             
1 51643U 22012X   25248.22039122 -.00000163  00000+0 -45333-3 0  9990
2 51643  87.9037  62.5178 0001962  90.5615 269.5741 13.17648394176136
