[{"OBJECT_NAME":"ONEWEB-0423","OBJECT_ID":"2022-012F","EPOCH":"2025-09-05T05:34:22.416960","MEAN_MOTION":13.17650066,"ECCENTRICITY":0.0001737,"INCLINATION":87.9038,"RA_OF_ASC_NODE":62.5422,"ARG_OF_PERICENTER":87.3544,"MEAN_ANOMALY":272.7786,"EPHEMERIS_TYPE":0,"CLASSIFICATION_TYPE":"U","NORAD_CAT_ID":51627,"ELEMENT_SET_NO":999,"REV_AT_EPOCH":17617,"BSTAR":0.00035152168,"MEAN_MOTION_DOT":1.49e-6,"MEAN_MOTION_DDOT":0},{"OBJECT_NAME":"ONEWEB-0425","OBJECT_ID":"2022-012G","EPOCH":"2025-09-05T01:33:40.505760","MEAN_MOTION":13.10372402,"ECCENTRICITY":0.00020253,"INCLINATION":87.8748,"RA_OF_ASC_NODE":93.123,"ARG_OF_PERICENTER":84.5314,"MEAN_ANOMALY":275.6044,"EPHEMERIS_TYPE":0,"CLASSIFICATION_TYPE":"U","NORAD_CAT_ID":51628,"ELEMENT_SET_NO":999,"REV_AT_EPOCH":17198,"BSTAR":-0.0017015189,"MEAN_MOTION_DOT":-5.81e-6,"MEAN_MOTION_DDOT":0},{"OBJECT_NAME":"ONEWEB-0428","OBJECT_ID":"2022-012H","EPOCH":"2025-09-05T06:34:51.979872","MEAN_MOTION":13.10369395,"ECCENTRICITY":0.00015021,"INCLINATION":87.874,"RA_OF_ASC_NODE":93.1024,"ARG_OF_PERICENTER":80.5179,"MEAN_ANOMALY":279.6118,"EPHEMERIS_TYPE":0,"CLASSIFICATION_TYPE":"U","NORAD_CAT_ID":51629,"ELEMENT_SET_NO":999,"REV_AT_EPOCH":17197,"BSTAR":-0.00016922028,"MEAN_MOTION_DOT":-4.6e-7,"MEAN_MOTION_DDOT":0},{"OBJECT_NAME":"ONEWEB-0431","OBJECT_ID":"2022-012J","EPOCH":"2025-09-05T02:11:51.958176","MEAN_MOTION":13.10345199,"ECCENTRICITY":0.00016546,"INCLINATION":87.876,"RA_OF_ASC_NODE":93.1121,"ARG_OF_PERICENTER":85.97,"MEAN_ANOMALY":274.1616,"EPHEMERIS_TYPE":0,"CLASSIFICATION_TYPE":"U","NORAD_CAT_ID":51630,"ELEMENT_SET_NO":999,"REV_AT_EPOCH":17200,"BSTAR":0.0020065774,"MEAN_MOTION_DOT":7.13e-6,"MEAN_MOTION_DDOT":0},{"OBJECT_NAME":"ONEWEB-0434","OBJECT_ID":"2022-012K","EPOCH":"2025-09-05T01:38:28.511520","MEAN_MOTION":13.10375124,"ECCENTRICITY":0.00023348,"INCLINATION":87.8751,"RA_OF_ASC_NODE":93.1573,"ARG_OF_PERICENTER":83.1054,"MEAN_ANOMALY":277.0338,"EPHEMERIS_TYPE":0,"CLASSIFICATION_TYPE":"U","NORAD_CAT_ID":51631,"ELEMENT_SET_NO":999,"REV_AT_EPOCH":17198,"BSTAR":-0.0013656542,"MEAN_MOTION_DOT":-4.64e-6,"MEAN_MOTION_DDOT":0},{"OBJECT_NAME":"ONEWEB-0435","OBJECT_ID":"2022-012L","EPOCH":"2025-09-05T01:50:24.913536","MEAN_MOTION":13.1037558,"ECCENTRICITY":0.00014891,"INCLINATION":87.8748,"RA_OF_ASC_NODE":93.1476,"ARG_OF_PERICENTER":70.2601,"MEAN_ANOMALY":289.8687,"EPHEMERIS_TYPE":0,"CLASSIFICATION_TYPE":"U","NORAD_CAT_ID":51632,"ELEMENT_SET_NO":999,"REV_AT_EPOCH":17197,"BSTAR":-0.00079119651,"MEAN_MOTION_DOT":-2.64e-6,"MEAN_MOTION_DDOT":0},{"OBJECT_NAME":"ONEWEB-0436","OBJECT_ID":"2022-012M","EPOCH":"2025-09-05T05:22:13.314144","MEAN_MOTION":13.17649701,"ECCENTRICITY":0.00015093,"INCLINATION":87.9029,"RA_OF_ASC_NODE":62.5255,"ARG_OF_PERICENTER":87.1338,"MEAN_ANOMALY":272.9966,"EPHEMERIS_TYPE":0,"CLASSIFICATION_TYPE":"U","NORAD_CAT_ID":51633,"ELEMENT_SET_NO":999,"REV_AT_EPOCH":17615,"BSTAR":0.00011478143,"MEAN_MOTION_DOT":5.7e-7,"MEAN_MOTION_DDOT":0},{"OBJECT_NAME":"ONEWEB-0438","OBJECT_ID":"2022-012N","EPOCH":"2025-09-05T03:16:27.258240","MEAN_MOTION":13.10371392,"ECCENTRICITY":0.00018635,"INCLINATION":87.8745,"RA_OF_ASC_NODE":93.1364,"ARG_OF_PERICENTER":84.8124,"MEAN_ANOMALY":275.3216,"EPHEMERIS_TYPE":0,"CLASSIFICATION_TYPE":"U","NORAD_CAT_ID":51634,"ELEMENT_SET_NO":999,"REV_AT_EPOCH":17201,"BSTAR":-0.001867209,"MEAN_MOTION_DOT":-6.39e-6,"MEAN_MOTION_DDOT":0},{"OBJECT_NAME":"ONEWEB-0439","OBJECT_ID":"2022-012P","EPOCH":"2025-09-05T01:31:16.752576","MEAN_MOTION":13.10372092,"ECCENTRICITY":0.0001698,"INCLINATION":87.8747,"RA_OF_ASC_NODE":93.1393,"ARG_OF_PERICENTER":81.0093,"MEAN_ANOMALY":279.1227,"EPHEMERIS_TYPE":0,"CLASSIFICATION_TYPE":"U","NORAD_CAT_ID":51635,"ELEMENT_SET_NO":999,"REV_AT_EPOCH":17198,"BSTAR":-0.0017748705,"MEAN_MOTION_DOT":-6.07e-6,"MEAN_MOTION_DDOT":0},{"OBJECT_NAME":"ONEWEB-0442","OBJECT_ID":"2022-012Q","EPOCH":"2025-09-05T05:11:18.219840","MEAN_MOTION":13.17647906,"ECCENTRICITY":0.00023389,"INCLINATION":87.9028,"RA_OF_ASC_NODE":62.5808,"ARG_OF_PERICENTER":99.0384,"MEAN_ANOMALY":261.1012,"EPHEMERIS_TYPE":0,"CLASSIFICATION_TYPE":"U","NORAD_CAT_ID":51636,"ELEMENT_SET_NO":999,"REV_AT_EPOCH":17614,"BSTAR":-7.8937386e-5,"MEAN_MOTION_DOT":-1.8e-7,"MEAN_MOTION_DDOT":0},{"OBJECT_NAME":"ONEWEB-0443","OBJECT_ID":"2022-012R","EPOCH":"2025-09-05T05:39:14.391072","MEAN_MOTION":13.17648566,"ECCENTRICITY":0.00019812,"INCLINATION":87.9025,"RA_OF_ASC_NODE":62.5848,"ARG_OF_PERICENTER":83.8979,"MEAN_ANOMALY":276.2378,"EPHEMERIS_TYPE":0,"CLASSIFICATION_TYPE":"U","NORAD_CAT_ID":51637,"ELEMENT_SET_NO":999,"REV_AT_EPOCH":17619,"BSTAR":0.00045953438,"MEAN_MOTION_DOT":1.91e-6,"MEAN_MOTION_DDOT":0},{"OBJECT_NAME":"ONEWEB-0444","OBJECT_ID":"2022-012S","EPOCH":"2025-09-05T03:06:55.063008","MEAN_MOTION":13.10370471,"ECCENTRICITY":0.00016588,"INCLINATION":87.8742,"RA_OF_ASC_NODE":93.1263,"ARG_OF_PERICENTER":78.7159,"MEAN_ANOMALY":281.4155,"EPHEMERIS_TYPE":0,"CLASSIFICATION_TYPE":"U","NORAD_CAT_ID":51638,"ELEMENT_SET_NO":999,"REV_AT_EPOCH":17200,"BSTAR":-0.001641081,"MEAN_MOTION_DOT":-5.6e-6,"MEAN_MOTION_DDOT":0},{"OBJECT_NAME":"ONEWEB-0445","OBJECT_ID":"2022-012T","EPOCH":"2025-09-05T01:48:02.763936","MEAN_MOTION":13.1037491,"ECCENTRICITY":0.00016883,"INCLINATION":87.876,"RA_OF_ASC_NODE":93.0903,"ARG_OF_PERICENTER":90.2204,"MEAN_ANOMALY":269.9116,"EPHEMERIS_TYPE":0,"CLASSIFICATION_TYPE":"U","NORAD_CAT_ID":51639,"ELEMENT_SET_NO":999,"REV_AT_EPOCH":17200,"BSTAR":-0.00082760578,"MEAN_MOTION_DOT":-2.76e-6,"MEAN_MOTION_DDOT":0},{"OBJECT_NAME":"ONEWEB-0446","OBJECT_ID":"2022-012U","EPOCH":"2025-09-05T03:04:30.586656","MEAN_MOTION":13.10369034,"ECCENTRICITY":0.00015891,"INCLINATION":87.8743,"RA_OF_ASC_NODE":93.142,"ARG_OF_PERICENTER":91.8243,"MEAN_ANOMALY":268.3067,"EPHEMERIS_TYPE":0,"CLASSIFICATION_TYPE":"U","NORAD_CAT_ID":51640,"ELEMENT_SET_NO":999,"REV_AT_EPOCH":17199,"BSTAR":-0.0014272109,"MEAN_MOTION_DOT":-4.85e-6,"MEAN_MOTION_DDOT":0},{"OBJECT_NAME":"ONEWEB-0448","OBJECT_ID":"2022-012V","EPOCH":"2025-09-05T03:11:41.418528","MEAN_MOTION":13.10372087,"ECCENTRICITY":0.00016692,"INCLINATION":87.8745,"RA_OF_ASC_NODE":93.1403,"ARG_OF_PERICENTER":81.3019,"MEAN_ANOMALY":278.8298,"EPHEMERIS_TYPE":0,"CLASSIFICATION_TYPE":"U","NORAD_CAT_ID":51641,"ELEMENT_SET_NO":999,"REV_AT_EPOCH":17196,"BSTAR":-0.001723194,"MEAN_MOTION_DOT":-5.89e-6,"MEAN_MOTION_DDOT":0},{"OBJECT_NAME":"ONEWEB-0449","OBJECT_ID":"2022-012W","EPOCH":"2025-09-05T03:18:52.196832","MEAN_MOTION":13.10372786,"ECCENTRICITY":0.00021598,"INCLINATION":87.8743,"RA_OF_ASC_NODE":93.1108,"ARG_OF_PERICENTER":83.4074,"MEAN_ANOMALY":276.73,"EPHEMERIS_TYPE":0,"CLASSIFICATION_TYPE":"U","NORAD_CAT_ID":51642,"ELEMENT_SET_NO":999,"REV_AT_EPOCH":17197,"BSTAR":-0.0020084184,"MEAN_MOTION_DOT":-6.88e-6,"MEAN_MOTION_DDOT":0},{"OBJECT_NAME":"ONEWEB-0451","OBJECT_ID":"2022-012X","EPOCH":"2025-09-05T05:17:21.801408","MEAN_MOTION":13.17648394,"ECCENTRICITY":0.00019622,"INCLINATION":87.9037,"RA_OF_ASC_NODE":62.5178,"ARG_OF_PERICENTER":90.5615,"MEAN_ANOMALY":269.5741,"EPHEMERIS_TYPE":0,"CLASSIFICATION_TYPE":"U","NORAD_CAT_ID":51643,"ELEMENT_SET_NO":999,"REV_AT_EPOCH":17613,"BSTAR":-0.00045333183,"MEAN_MOTION_DOT":-1.63e-6,"MEAN_MOTION_DDOT":0}]
